NORAD_CAT_ID,OBJECT_NAME,OBJECT_TYPE,EPOCH,MEAN_MOTION,ECCENTRICITY,INCLINATION,RA_OF_ASC_NODE,ARG_OF_PERICENTER,MEAN_ANOMALY,BSTAR,MEAN_MOTION_DOT,MEAN_MOTION_DDOT,TLE_LINE0,TLE_LINE1,TLE_LINE2,SEMIMAJOR_AXIS,PERIOD,APOGEE,PERIGEE,DECAYED
49761.0,STARLINK-3203,PAYLOAD,2023-11-05 11:09:53,15.08855396,0.0001681,53.2166,18.371,88.1309,271.9876,0.00052991,8.159e-05,0.0,0 STARLINK-3203,1 49761U 21115AP  23309.46519732  .00008159  00000-0  52991-3 0  9993,2 49761  53.2166  18.3710 0001681  88.1309 271.9876 15.08855396106565,6917.833,95.437,540.861,538.535,0.0
49761.0,STARLINK-3203,PAYLOAD,2023-11-06 11:00:41,15.08773444,0.0001462,53.2167,13.9104,87.5035,272.6124,-0.001752,-0.00028012,0.0,0 STARLINK-3203,1 49761U 21115AP  23310.45881238 -.00028012  00000-0 -17520-2 0  9997,2 49761  53.2167  13.9104 0001462  87.5035 272.6124 15.08773444107827,6918.084,95.442,540.96,538.937,0.0
49761.0,STARLINK-3203,PAYLOAD,2023-11-07 04:29:56,15.08794631,0.0001326,53.2176,10.6373,94.4594,265.6549,-0.00074627,-0.0001213,0.0,0 STARLINK-3203,1 49761U 21115AP  23311.18746039 -.00012130  00000-0 -74627-3 0  9993,2 49761  53.2176  10.6373 0001326  94.4594 265.6549 15.08794631107931,6918.019,95.44,540.801,538.967,0.0
49761.0,STARLINK-3203,PAYLOAD,2023-11-07 10:51:29,15.08813035,0.0001462,53.2184,9.4498,90.7157,269.4002,-0.00020565,-3.557e-05,0.0,0 STARLINK-3203,1 49761U 21115AP  23311.45242360 -.00003557  00000-0 -20565-3 0  9996,2 49761  53.2184   9.4498 0001462  90.7157 269.4002 15.08813035107979,6917.963,95.439,540.839,538.816,0.0
49761.0,STARLINK-3203,PAYLOAD,2023-11-08 04:20:43,15.08840324,0.0001232,53.2185,6.1805,91.6992,268.4141,5.9943e-05,6.66e-06,0.0,0 STARLINK-3203,1 49761U 21115AP  23312.18105726  .00000666  00000-0  59943-4 0  9990,2 49761  53.2185   6.1805 0001232  91.6992 268.4141 15.08840324108085,6917.879,95.438,540.597,538.892,0.0
49761.0,STARLINK-3203,PAYLOAD,2023-11-08 10:42:15,15.08856285,0.0001454,53.2187,4.9931,95.491,264.6248,0.00035247,5.329e-05,0.0,0 STARLINK-3203,1 49761U 21115AP  23312.44600977  .00005329  00000-0  35247-3 0  9998,2 49761  53.2187   4.9931 0001454  95.4910 264.6248 15.08856285108125,6917.831,95.437,540.701,538.69,0.0
49761.0,STARLINK-3203,PAYLOAD,2023-11-08 20:14:34,15.08851648,0.0001443,53.219,3.2109,113.2405,246.8739,0.00010132,1.325e-05,0.0,0 STARLINK-3203,1 49761U 21115AP  23312.84344993  .00001325  00000-0  10132-3 0  9993,2 49761  53.2190   3.2109 0001443 113.2405 246.8739 15.08851648107072,6917.845,95.437,540.708,538.712,0.0
49761.0,STARLINK-3203,PAYLOAD,2023-11-09 04:11:30,15.08842955,0.0001667,53.2194,1.7252,109.0776,251.0397,0.00039316,5.975e-05,0.0,0 STARLINK-3203,1 49761U 21115AP  23313.17465872  .00005975  00000-0  39316-3 0  9990,2 49761  53.2194   1.7252 0001667 109.0776 251.0397 15.08842955108238,6917.871,95.437,540.89,538.583,0.0
49761.0,STARLINK-3203,PAYLOAD,2023-11-09 13:43:48,15.08855666,0.0001339,53.2184,359.9359,93.0781,267.0364,0.00039301,5.975e-05,0.0,0 STARLINK-3203,1 49761U 21115AP  23313.57208991  .00005975  00000-0  39301-3 0  9995,2 49761  53.2184 359.9359 0001339  93.0781 267.0364 15.08855666107184,6917.833,95.437,540.624,538.771,0.0
49761.0,STARLINK-3203,PAYLOAD,2023-11-09 20:05:21,15.08842456,0.0001398,53.2184,358.7501,93.8832,266.232,2.5006e-05,1.1e-06,0.0,0 STARLINK-3203,1 49761U 21115AP  23313.83705391  .00000110  00000-0  25006-4 0  9994,2 49761  53.2184 358.7501 0001398  93.8832 266.2320 15.08842456107221,6917.873,95.437,540.705,538.771,0.0
49761.0,STARLINK-3203,PAYLOAD,2023-11-10 10:23:49,15.08847036,0.0001476,53.2182,356.0739,74.623,285.4925,-0.00011556,-2.127e-05,0.0,0 STARLINK-3203,1 49761U 21115AP  23314.43320981 -.00002127  00000-0 -11556-3 0  9995,2 49761  53.2182 356.0739 0001476  74.6230 285.4925 15.08847036107312,6917.859,95.437,540.745,538.703,0.0
49761.0,STARLINK-3203,PAYLOAD,2023-11-11 10:14:36,15.08847415,0.00016,53.2189,351.612,87.5704,272.5471,3.229e-05,2.26e-06,0.0,0 STARLINK-3203,1 49761U 21115AP  23315.42681241  .00000226  00000-0  32290-4 0  9999,2 49761  53.2189 351.6120 0001600  87.5704 272.5471 15.08847415108575,6917.858,95.437,540.83,538.616,0.0
49761.0,STARLINK-3203,PAYLOAD,2023-11-11 19:46:55,15.08848002,0.0001714,53.2186,349.8262,77.2467,282.8717,-5.3346e-05,-1.137e-05,0.0,0 STARLINK-3203,1 49761U 21115AP  23315.82425236 -.00001137  00000-0 -53346-4 0  9992,2 49761  53.2186 349.8262 0001714  77.2467 282.8717 15.08848002107520,6917.856,95.437,540.907,538.535,0.0
49761.0,STARLINK-3203,PAYLOAD,2023-11-12 02:08:28,15.08837833,0.000203,53.2185,348.6379,79.5296,280.5925,6.3632e-05,7.25e-06,0.0,0 STARLINK-3203,1 49761U 21115AP  23316.08921784  .00000725  00000-0  63632-4 0  9999,2 49761  53.2185 348.6379 0002030  79.5296 280.5925 15.08837833108675,6917.887,95.438,541.156,538.348,0.0
49761.0,STARLINK-3203,PAYLOAD,2023-11-12 08:30:00,15.088375,0.0001644,53.2181,347.4461,82.4866,277.6313,9.6084e-05,1.241e-05,0.0,0 STARLINK-3203,1 49761U 21115AP  23316.35417706  .00001241  00000-0  96084-4 0  9994,2 49761  53.2181 347.4461 0001644  82.4866 277.6313 15.08837500107607,6917.888,95.438,540.89,538.616,0.0
49761.0,STARLINK-3203,PAYLOAD,2023-11-12 19:37:42,15.08846072,0.0001717,53.2183,345.3641,82.1526,277.9661,0.00010659,1.409e-05,0.0,0 STARLINK-3203,1 49761U 21115AP  23316.81785104  .00001409  00000-0  10659-3 0  9994,2 49761  53.2183 345.3641 0001717  82.1526 277.9661 15.08846072107677,6917.862,95.437,540.915,538.539,0.0
49761.0,STARLINK-3203,PAYLOAD,2023-11-13 08:20:46,15.08856035,0.0001671,53.2174,342.9852,88.2207,271.8977,0.00017335,2.473e-05,0.0,0 STARLINK-3203,1 49761U 21115AP  23317.34776310  .00002473  00000-0  17335-3 0  9992,2 49761  53.2174 342.9852 0001671  88.2207 271.8977 15.08856035108861,6917.831,95.437,540.852,538.54,0.0
49761.0,STARLINK-3203,PAYLOAD,2023-11-13 19:28:29,15.08849619,0.0001564,53.2161,340.9047,90.9704,269.1467,0.000153,2.148e-05,0.0,0 STARLINK-3203,1 49761U 21115AP  23317.81144705  .00002148  00000-0  15300-3 0  9990,2 49761  53.2161 340.9047 0001564  90.9704 269.1467 15.08849619108936,6917.851,95.437,540.798,538.634,0.0
49761.0,STARLINK-3203,PAYLOAD,2023-11-14 01:50:02,15.088416,0.0001998,53.2194,339.716,89.4536,270.6685,0.00011756,1.583e-05,0.0,0 STARLINK-3203,1 49761U 21115AP  23318.07641205  .00001583  00000-0  11756-3 0  9999,2 49761  53.2194 339.7160 0001998  89.4536 270.6685 15.08841600108976,6917.875,95.437,541.123,538.358,0.0
49761.0,STARLINK-3203,PAYLOAD,2023-11-14 11:22:20,15.08842679,0.0001811,53.2181,337.9294,100.9647,259.1549,6.1409e-05,6.89e-06,0.0,0 STARLINK-3203,1 49761U 21115AP  23318.47385111  .00000689  00000-0  61409-4 0  9991,2 49761  53.2181 337.9294 0001811 100.9647 259.1549 15.08842679107928,6917.872,95.437,540.99,538.484,0.0
49761.0,STARLINK-3203,PAYLOAD,2023-11-15 01:40:49,15.08839058,0.0002064,53.2186,335.2518,104.6779,255.4442,-6.9306e-05,-1.391e-05,0.0,0 STARLINK-3203,1 49761U 21115AP  23319.07001711 -.00001391  00000-0 -69306-4 0  9996,2 49761  53.2186 335.2518 0002064 104.6779 255.4442 15.08839058109123,6917.883,95.438,541.176,538.32,0.0
49761.0,STARLINK-3203,PAYLOAD,2023-11-15 06:26:58,15.08841173,0.0002093,53.2182,334.3597,102.8357,257.2869,-5.3645e-05,-1.142e-05,0.0,0 STARLINK-3203,1 49761U 21115AP  23319.26873511 -.00001142  00000-0 -53645-4 0  9995,2 49761  53.2182 334.3597 0002093 102.8357 257.2869 15.08841173108044,6917.877,95.437,541.19,538.294,0.0
49761.0,STARLINK-3203,PAYLOAD,2023-11-15 17:34:40,15.08841885,0.0001911,53.2185,332.2787,99.5092,260.6117,-5.6197e-05,-1.183e-05,0.0,0 STARLINK-3203,1 49761U 21115AP  23319.73241477 -.00001183  00000-0 -56197-4 0  9997,2 49761  53.2185 332.2787 0001911  99.5092 260.6117 15.08841885108113,6917.875,95.437,541.062,538.418,0.0
49761.0,STARLINK-3203,PAYLOAD,2023-11-16 07:53:08,15.08838837,0.0001822,53.2186,329.6044,97.5098,262.6102,0.00010449,1.375e-05,0.0,0 STARLINK-3203,1 49761U 21115AP  23320.32857518  .00001375  00000-0  10449-3 0  9993,2 49761  53.2186 329.6044 0001822  97.5098 262.6102 15.08838837109317,6917.884,95.438,541.009,538.489,0.0
49761.0,STARLINK-3203,PAYLOAD,2023-11-16 17:25:27,15.08838828,0.0001802,53.2183,327.8201,96.8799,263.2398,5.256e-05,5.48e-06,0.0,0 STARLINK-3203,1 49761U 21115AP  23320.72601702  .00000548  00000-0  52560-4 0  9991,2 49761  53.2183 327.8201 0001802  96.8799 263.2398 15.08838828108264,6917.884,95.438,540.996,538.502,0.0
49761.0,STARLINK-3203,PAYLOAD,2023-11-17 07:43:56,15.08836843,0.0001761,53.2183,325.1442,92.5182,267.6012,0.00010137,1.325e-05,0.0,0 STARLINK-3203,1 49761U 21115AP  23321.32217992  .00001325  00000-0  10137-3 0  9999,2 49761  53.2183 325.1442 0001761  92.5182 267.6012 15.08836843109464,6917.89,95.438,540.973,538.537,0.0
49761.0,STARLINK-3203,PAYLOAD,2023-11-18 09:10:06,15.08838877,0.000179,53.2183,320.3866,92.754,267.3657,5.1476e-05,5.31e-06,0.0,0 STARLINK-3203,1 49761U 21115AP  23322.38202247  .00000531  00000-0  51476-4 0  9993,2 49761  53.2183 320.3866 0001790  92.7540 267.3657 15.08838877109622,6917.884,95.438,540.987,538.511,0.0
49761.0,STARLINK-3203,PAYLOAD,2023-11-18 17:07:02,15.08837391,0.0001768,53.2182,318.8994,89.906,270.2135,4.3996e-05,4.12e-06,0.0,0 STARLINK-3203,1 49761U 21115AP  23322.71322405  .00000412  00000-0  43996-4 0  9995,2 49761  53.2182 318.8994 0001768  89.9060 270.2135 15.08837391108561,6917.888,95.438,540.976,538.53,0.0
49761.0,STARLINK-3203,PAYLOAD,2023-11-19 07:25:30,15.08844273,0.0001702,53.2177,316.2225,92.3108,267.8079,5.2744e-05,5.52e-06,0.0,0 STARLINK-3203,1 49761U 21115AP  23323.30938031  .00000552  00000-0  52744-4 0  9995,2 49761  53.2177 316.2225 0001702  92.3108 267.8079 15.08844273108659,6917.867,95.437,540.91,538.555,0.0
49761.0,STARLINK-3203,PAYLOAD,2023-11-19 16:57:49,15.08841892,0.000166,53.2174,314.4382,91.7112,268.407,4.4194e-05,4.15e-06,0.0,0 STARLINK-3203,1 49761U 21115AP  23323.70682161  .00000415  00000-0  44194-4 0  9997,2 49761  53.2174 314.4382 0001660  91.7112 268.4070 15.08841892109823,6917.875,95.437,540.888,538.591,0.0
